<?xml version="1.0" encoding="UTF-8"?>
<ndm xmlns:xsi="http://www.w3.org/2001/XMLSchema-instance" xsi:noNamespaceSchemaLocation="https://sanaregistry.org/r/ndmxml_unqualified/ndmxml-2.0.0-master-2.0.xsd">
<omm id="CCSDS_OMM_VERS" version="2.0">
<header><CREATION_DATE/><ORIGINATOR/></header><body><segment><metadata><OBJECT_NAME>KUIPER-00136</OBJECT_NAME><OBJECT_ID>2025-228R</OBJECT_ID><CENTER_NAME>EARTH</CENTER_NAME><REF_FRAME>TEME</REF_FRAME><TIME_SYSTEM>UTC</TIME_SYSTEM><MEAN_ELEMENT_THEORY>SGP4</MEAN_ELEMENT_THEORY></metadata><data><meanElements><EPOCH>2026-01-16T00:00:02.000160</EPOCH><MEAN_MOTION>14.85803277</MEAN_MOTION><ECCENTRICITY>.00036987</ECCENTRICITY><INCLINATION>51.8998</INCLINATION><RA_OF_ASC_NODE>221.3607</RA_OF_ASC_NODE><ARG_OF_PERICENTER>175.9874</ARG_OF_PERICENTER><MEAN_ANOMALY>245.1468</MEAN_ANOMALY></meanElements><tleParameters><EPHEMERIS_TYPE>0</EPHEMERIS_TYPE><CLASSIFICATION_TYPE>U</CLASSIFICATION_TYPE><NORAD_CAT_ID>65962</NORAD_CAT_ID><ELEMENT_SET_NO>999</ELEMENT_SET_NO><REV_AT_EPOCH>528</REV_AT_EPOCH><BSTAR>.5749761E-3</BSTAR><MEAN_MOTION_DOT>.482E-4</MEAN_MOTION_DOT><MEAN_MOTION_DDOT>0</MEAN_MOTION_DDOT></tleParameters></data></segment></body></omm>
<omm id="CCSDS_OMM_VERS" version="2.0">
<header><CREATION_DATE/><ORIGINATOR/></header><body><segment><metadata><OBJECT_NAME>KUIPER-00137</OBJECT_NAME><OBJECT_ID>2025-228S</OBJECT_ID><CENTER_NAME>EARTH</CENTER_NAME><REF_FRAME>TEME</REF_FRAME><TIME_SYSTEM>UTC</TIME_SYSTEM><MEAN_ELEMENT_THEORY>SGP4</MEAN_ELEMENT_THEORY></metadata><data><meanElements><EPOCH>2026-01-16T00:00:02.000160</EPOCH><MEAN_MOTION>14.95202293</MEAN_MOTION><ECCENTRICITY>.00085878</ECCENTRICITY><INCLINATION>51.8955</INCLINATION><RA_OF_ASC_NODE>219.2776</RA_OF_ASC_NODE><ARG_OF_PERICENTER>179.4373</ARG_OF_PERICENTER><MEAN_ANOMALY>341.3979</MEAN_ANOMALY></meanElements><tleParameters><EPHEMERIS_TYPE>0</EPHEMERIS_TYPE><CLASSIFICATION_TYPE>U</CLASSIFICATION_TYPE><NORAD_CAT_ID>65963</NORAD_CAT_ID><ELEMENT_SET_NO>999</ELEMENT_SET_NO><REV_AT_EPOCH>582</REV_AT_EPOCH><BSTAR>.10164829E-2</BSTAR><MEAN_MOTION_DOT>.1106E-3</MEAN_MOTION_DOT><MEAN_MOTION_DDOT>0</MEAN_MOTION_DDOT></tleParameters></data></segment></body></omm>
<omm id="CCSDS_OMM_VERS" version="2.0">
<header><CREATION_DATE/><ORIGINATOR/></header><body><segment><metadata><OBJECT_NAME>KUIPER-00138</OBJECT_NAME><OBJECT_ID>2025-228T</OBJECT_ID><CENTER_NAME>EARTH</CENTER_NAME><REF_FRAME>TEME</REF_FRAME><TIME_SYSTEM>UTC</TIME_SYSTEM><MEAN_ELEMENT_THEORY>SGP4</MEAN_ELEMENT_THEORY></metadata><data><meanElements><EPOCH>2026-01-16T00:00:02.000160</EPOCH><MEAN_MOTION>15.05845978</MEAN_MOTION><ECCENTRICITY>.00083443</ECCENTRICITY><INCLINATION>51.9073</INCLINATION><RA_OF_ASC_NODE>217.6968</RA_OF_ASC_NODE><ARG_OF_PERICENTER>163.6289</ARG_OF_PERICENTER><MEAN_ANOMALY>51.1418</MEAN_ANOMALY></meanElements><tleParameters><EPHEMERIS_TYPE>0</EPHEMERIS_TYPE><CLASSIFICATION_TYPE>U</CLASSIFICATION_TYPE><NORAD_CAT_ID>65964</NORAD_CAT_ID><ELEMENT_SET_NO>999</ELEMENT_SET_NO><REV_AT_EPOCH>561</REV_AT_EPOCH><BSTAR>-.76102195E-1</BSTAR><MEAN_MOTION_DOT>-.1037964E-1</MEAN_MOTION_DOT><MEAN_MOTION_DDOT>0</MEAN_MOTION_DDOT></tleParameters></data></segment></body></omm>
<omm id="CCSDS_OMM_VERS" version="2.0">
<header><CREATION_DATE/><ORIGINATOR/></header><body><segment><metadata><OBJECT_NAME>KUIPER-00140</OBJECT_NAME><OBJECT_ID>2025-228U</OBJECT_ID><CENTER_NAME>EARTH</CENTER_NAME><REF_FRAME>TEME</REF_FRAME><TIME_SYSTEM>UTC</TIME_SYSTEM><MEAN_ELEMENT_THEORY>SGP4</MEAN_ELEMENT_THEORY></metadata><data><meanElements><EPOCH>2026-01-16T00:00:02.000160</EPOCH><MEAN_MOTION>14.95612585</MEAN_MOTION><ECCENTRICITY>.00023408</ECCENTRICITY><INCLINATION>51.8935</INCLINATION><RA_OF_ASC_NODE>219.4742</RA_OF_ASC_NODE><ARG_OF_PERICENTER>131.0588</ARG_OF_PERICENTER><MEAN_ANOMALY>181.7098</MEAN_ANOMALY></meanElements><tleParameters><EPHEMERIS_TYPE>0</EPHEMERIS_TYPE><CLASSIFICATION_TYPE>U</CLASSIFICATION_TYPE><NORAD_CAT_ID>65965</NORAD_CAT_ID><ELEMENT_SET_NO>999</ELEMENT_SET_NO><REV_AT_EPOCH>558</REV_AT_EPOCH><BSTAR>.12799024E-2</BSTAR><MEAN_MOTION_DOT>.14141E-3</MEAN_MOTION_DOT><MEAN_MOTION_DDOT>0</MEAN_MOTION_DDOT></tleParameters></data></segment></body></omm>
<omm id="CCSDS_OMM_VERS" version="2.0">
<header><CREATION_DATE/><ORIGINATOR/></header><body><segment><metadata><OBJECT_NAME>KUIPER-00141</OBJECT_NAME><OBJECT_ID>2025-228V</OBJECT_ID><CENTER_NAME>EARTH</CENTER_NAME><REF_FRAME>TEME</REF_FRAME><TIME_SYSTEM>UTC</TIME_SYSTEM><MEAN_ELEMENT_THEORY>SGP4</MEAN_ELEMENT_THEORY></metadata><data><meanElements><EPOCH>2026-01-16T00:00:02.000160</EPOCH><MEAN_MOTION>15.12334718</MEAN_MOTION><ECCENTRICITY>.00026962</ECCENTRICITY><INCLINATION>51.8868</INCLINATION><RA_OF_ASC_NODE>216.4592</RA_OF_ASC_NODE><ARG_OF_PERICENTER>219.9292</ARG_OF_PERICENTER><MEAN_ANOMALY>171.9308</MEAN_ANOMALY></meanElements><tleParameters><EPHEMERIS_TYPE>0</EPHEMERIS_TYPE><CLASSIFICATION_TYPE>U</CLASSIFICATION_TYPE><NORAD_CAT_ID>65966</NORAD_CAT_ID><ELEMENT_SET_NO>999</ELEMENT_SET_NO><REV_AT_EPOCH>480</REV_AT_EPOCH><BSTAR>-.52366623E-1</BSTAR><MEAN_MOTION_DOT>-.855021E-2</MEAN_MOTION_DOT><MEAN_MOTION_DDOT>0</MEAN_MOTION_DDOT></tleParameters></data></segment></body></omm>
<omm id="CCSDS_OMM_VERS" version="2.0">
<header><CREATION_DATE/><ORIGINATOR/></header><body><segment><metadata><OBJECT_NAME>KUIPER-00146</OBJECT_NAME><OBJECT_ID>2025-228W</OBJECT_ID><CENTER_NAME>EARTH</CENTER_NAME><REF_FRAME>TEME</REF_FRAME><TIME_SYSTEM>UTC</TIME_SYSTEM><MEAN_ELEMENT_THEORY>SGP4</MEAN_ELEMENT_THEORY></metadata><data><meanElements><EPOCH>2026-01-16T00:00:02.000160</EPOCH><MEAN_MOTION>15.02986445</MEAN_MOTION><ECCENTRICITY>.00038612</ECCENTRICITY><INCLINATION>51.8928</INCLINATION><RA_OF_ASC_NODE>217.7398</RA_OF_ASC_NODE><ARG_OF_PERICENTER>182.0048</ARG_OF_PERICENTER><MEAN_ANOMALY>287.5416</MEAN_ANOMALY></meanElements><tleParameters><EPHEMERIS_TYPE>0</EPHEMERIS_TYPE><CLASSIFICATION_TYPE>U</CLASSIFICATION_TYPE><NORAD_CAT_ID>65967</NORAD_CAT_ID><ELEMENT_SET_NO>999</ELEMENT_SET_NO><REV_AT_EPOCH>477</REV_AT_EPOCH><BSTAR>.25829966E-2</BSTAR><MEAN_MOTION_DOT>.35042E-3</MEAN_MOTION_DOT><MEAN_MOTION_DDOT>0</MEAN_MOTION_DDOT></tleParameters></data></segment></body></omm>
<omm id="CCSDS_OMM_VERS" version="2.0">
<header><CREATION_DATE/><ORIGINATOR/></header><body><segment><metadata><OBJECT_NAME>KUIPER-00149</OBJECT_NAME><OBJECT_ID>2025-228X</OBJECT_ID><CENTER_NAME>EARTH</CENTER_NAME><REF_FRAME>TEME</REF_FRAME><TIME_SYSTEM>UTC</TIME_SYSTEM><MEAN_ELEMENT_THEORY>SGP4</MEAN_ELEMENT_THEORY></metadata><data><meanElements><EPOCH>2026-01-16T00:00:02.000160</EPOCH><MEAN_MOTION>15.23628086</MEAN_MOTION><ECCENTRICITY>.00041901</ECCENTRICITY><INCLINATION>51.8834</INCLINATION><RA_OF_ASC_NODE>215.4878</RA_OF_ASC_NODE><ARG_OF_PERICENTER>148.7584</ARG_OF_PERICENTER><MEAN_ANOMALY>66.1654</MEAN_ANOMALY></meanElements><tleParameters><EPHEMERIS_TYPE>0</EPHEMERIS_TYPE><CLASSIFICATION_TYPE>U</CLASSIFICATION_TYPE><NORAD_CAT_ID>65968</NORAD_CAT_ID><ELEMENT_SET_NO>999</ELEMENT_SET_NO><REV_AT_EPOCH>550</REV_AT_EPOCH><BSTAR>-.36848729E-1</BSTAR><MEAN_MOTION_DOT>-.82657E-2</MEAN_MOTION_DOT><MEAN_MOTION_DDOT>0</MEAN_MOTION_DDOT></tleParameters></data></segment></body></omm>
<omm id="CCSDS_OMM_VERS" version="2.0">
<header><CREATION_DATE/><ORIGINATOR/></header><body><segment><metadata><OBJECT_NAME>KUIPER-00154</OBJECT_NAME><OBJECT_ID>2025-228Y</OBJECT_ID><CENTER_NAME>EARTH</CENTER_NAME><REF_FRAME>TEME</REF_FRAME><TIME_SYSTEM>UTC</TIME_SYSTEM><MEAN_ELEMENT_THEORY>SGP4</MEAN_ELEMENT_THEORY></metadata><data><meanElements><EPOCH>2026-01-16T00:00:02.000160</EPOCH><MEAN_MOTION>15.32672245</MEAN_MOTION><ECCENTRICITY>.00059442</ECCENTRICITY><INCLINATION>51.8781</INCLINATION><RA_OF_ASC_NODE>215.1406</RA_OF_ASC_NODE><ARG_OF_PERICENTER>125.4086</ARG_OF_PERICENTER><MEAN_ANOMALY>255.8663</MEAN_ANOMALY></meanElements><tleParameters><EPHEMERIS_TYPE>0</EPHEMERIS_TYPE><CLASSIFICATION_TYPE>U</CLASSIFICATION_TYPE><NORAD_CAT_ID>65969</NORAD_CAT_ID><ELEMENT_SET_NO>999</ELEMENT_SET_NO><REV_AT_EPOCH>547</REV_AT_EPOCH><BSTAR>.1898099E-2</BSTAR><MEAN_MOTION_DOT>.60931E-3</MEAN_MOTION_DOT><MEAN_MOTION_DDOT>0</MEAN_MOTION_DDOT></tleParameters></data></segment></body></omm>

</ndm>
