KUIPER-00136            
1 65962U 25228R   26016.00002315  .00004820  00000+0  57498-3 0  9992
2 65962  51.8998 221.3607 0003698 175.9874 245.1468 14.85803277  5288
KUIPER-00137            
1 65963U 25228S   26016.00002315  .00011060  00000+0  10165-2 0  9996
2 65963  51.8955 219.2776 0008587 179.4373 341.3979 14.95202293  5828
KUIPER-00138            
1 65964U 25228T   26016.00002315 -.01037964  00000+0 -76102-1 0  9993
2 65964  51.9073 217.6968 0008344 163.6289  51.1418 15.05845978  5614
KUIPER-00140            
1 65965U 25228U   26016.00002315  .00014141  00000+0  12799-2 0  9996
2 65965  51.8935 219.4742 0002340 131.0588 181.7098 14.95612585  5586
KUIPER-00141            
1 65966U 25228V   26016.00002315 -.00855021  00000+0 -52367-1 0  9993
2 65966  51.8868 216.4592 0002696 219.9292 171.9308 15.12334718  4802
KUIPER-00146            
1 65967U 25228W   26016.00002315  .00035042  00000+0  25830-2 0  9991
2 65967  51.8928 217.7398 0003861 182.0048 287.5416 15.02986445  4771
KUIPER-00149            
1 65968U 25228X   26016.00002315 -.00826570  00000+0 -36849-1 0  9999
2 65968  51.8834 215.4878 0004190 148.7584  66.1654 15.23628086  5500
KUIPER-00154            
1 65969U 25228Y   26016.00002315  .00060931  00000+0  18981-2 0  9997
2 65969  51.8781 215.1406 0005944 125.4086 255.8663 15.32672245  5472
